NORAD_CAT_ID,OBJECT_NAME,OBJECT_TYPE,EPOCH,MEAN_MOTION,ECCENTRICITY,INCLINATION,RA_OF_ASC_NODE,ARG_OF_PERICENTER,MEAN_ANOMALY,BSTAR,MEAN_MOTION_DOT,MEAN_MOTION_DDOT,TLE_LINE0,TLE_LINE1,TLE_LINE2,SEMIMAJOR_AXIS,PERIOD,APOGEE,PERIGEE,DECAYED
53024.0,STARLINK-4289,PAYLOAD,2024-06-06 12:38:42,15.0884903,0.0001521,53.2186,82.4116,95.8754,264.2411,-1.175e-05,-4.75e-06,0.0,0 STARLINK-4289,1 53024U 22076AQ  24158.52688551 -.00000475  00000-0 -11750-4 0  9997,2 53024  53.2186  82.4116 0001521  95.8754 264.2411 15.08849030106667,6917.853,95.437,540.77,538.666,0.0
53024.0,STARLINK-4289,PAYLOAD,2024-06-07 22:01:48,15.08857487,0.0001862,53.2208,76.1656,108.9538,251.1656,-0.00021558,-3.719e-05,0.0,0 STARLINK-4289,1 53024U 22076AQ  24159.91792599 -.00003719  00000-0 -21558-3 0  9999,2 53024  53.2208  76.1656 0001862 108.9538 251.1656 15.08857487106408,6917.827,95.436,540.98,538.404,0.0
53024.0,STARLINK-4289,PAYLOAD,2024-06-08 04:23:22,15.08836735,0.0001378,53.2186,74.9823,85.8532,274.2618,-1.8087e-06,-3.17e-06,0.0,0 STARLINK-4289,1 53024U 22076AQ  24160.18289791 -.00000317  00000-0 -18087-5 0  9991,2 53024  53.2186  74.9823 0001378  85.8532 274.2618 15.08836735106917,6917.89,95.438,540.709,538.802,0.0
53024.0,STARLINK-4289,PAYLOAD,2024-06-08 21:52:37,15.08827737,0.0001266,53.2186,71.7097,90.3569,269.7568,6.0404e-06,-1.92e-06,0.0,0 STARLINK-4289,1 53024U 22076AQ  24160.91154555 -.00000192  00000-0  60404-5 0  9991,2 53024  53.2186  71.7097 0001266  90.3569 269.7568 15.08827737106557,6917.918,95.438,540.659,538.907,0.0
53024.0,STARLINK-4289,PAYLOAD,2024-06-09 01:03:23,15.08830547,0.0001144,53.2176,71.1162,86.8995,273.2128,5.1747e-05,5.36e-06,0.0,0 STARLINK-4289,1 53024U 22076AQ  24161.04402375  .00000536  00000-0  51747-4 0  9992,2 53024  53.2176  71.1162 0001144  86.8995 273.2128 15.08830547107041,6917.909,95.438,540.566,538.983,0.0
53024.0,STARLINK-4289,PAYLOAD,2024-06-09 18:32:37,15.08840764,0.0001149,53.2173,67.8437,83.1321,276.9802,5.4904e-05,5.86e-06,0.0,0 STARLINK-4289,1 53024U 22076AQ  24161.77266095  .00000586  00000-0  54904-4 0  9992,2 53024  53.2173  67.8437 0001149  83.1321 276.9802 15.08840764107156,6917.878,95.438,540.538,538.948,0.0
53024.0,STARLINK-4289,PAYLOAD,2024-06-09 21:43:24,15.08841046,0.0001169,53.2174,67.2493,84.0436,276.069,4.6952e-05,4.6e-06,0.0,0 STARLINK-4289,1 53024U 22076AQ  24161.90514149  .00000460  00000-0  46952-4 0  9998,2 53024  53.2174  67.2493 0001169  84.0436 276.0690 15.08841046106702,6917.877,95.437,540.551,538.933,0.0
53024.0,STARLINK-4289,PAYLOAD,2024-06-10 10:26:28,15.08854077,0.0001282,53.2182,64.8696,80.2611,279.8526,0.00016524,2.344e-05,0.0,0 STARLINK-4289,1 53024U 22076AQ  24162.43505039  .00002344  00000-0  16524-3 0  9999,2 53024  53.2182  64.8696 0001282  80.2611 279.8526 15.08854077107256,6917.837,95.437,540.589,538.815,0.0
53024.0,STARLINK-4289,PAYLOAD,2024-06-10 23:09:35,15.08832402,0.0001332,53.2177,62.4906,78.7767,281.3375,4.241e-05,3.87e-06,0.0,0 STARLINK-4289,1 53024U 22076AQ  24162.96499154  .00000387  00000-0  42410-4 0  9996,2 53024  53.2177  62.4906 0001332  78.7767 281.3375 15.08832402106862,6917.904,95.438,540.69,538.847,0.0
53024.0,STARLINK-4289,PAYLOAD,2024-06-11 02:20:21,15.08839576,0.0001399,53.2189,61.8977,85.0653,275.0499,9.7386e-05,1.262e-05,0.0,0 STARLINK-4289,1 53024U 22076AQ  24163.09746649  .00001262  00000-0  97386-4 0  9990,2 53024  53.2189  61.8977 0001399  85.0653 275.0499 15.08839576107355,6917.882,95.438,540.714,538.779,0.0
53024.0,STARLINK-4289,PAYLOAD,2024-06-11 10:17:16,15.08847418,0.0001472,53.2181,60.4109,84.1239,275.9921,0.00015264,2.143e-05,0.0,0 STARLINK-4289,1 53024U 22076AQ  24163.42865957  .00002143  00000-0  15264-3 0  9994,2 53024  53.2181  60.4109 0001472  84.1239 275.9921 15.08847418106937,6917.858,95.437,540.741,538.704,0.0
53024.0,STARLINK-4289,PAYLOAD,2024-06-12 00:35:45,15.08835103,0.0001416,53.2177,57.7335,87.8551,272.2603,-2.2266e-05,-6.42e-06,0.0,0 STARLINK-4289,1 53024U 22076AQ  24164.02482917 -.00000642  00000-0 -22266-4 0  9997,2 53024  53.2177  57.7335 0001416  87.8551 272.2603 15.08835103107023,6917.895,95.438,540.74,538.781,0.0
53024.0,STARLINK-4289,PAYLOAD,2024-06-12 10:08:03,15.08850262,0.0001366,53.2178,55.9481,84.7475,275.3673,0.00014185,1.971e-05,0.0,0 STARLINK-4289,1 53024U 22076AQ  24164.42225928  .00001971  00000-0  14185-3 0  9992,2 53024  53.2178  55.9481 0001366  84.7475 275.3673 15.08850262107553,6917.849,95.437,540.659,538.769,0.0
53024.0,STARLINK-4289,PAYLOAD,2024-06-12 21:15:46,15.08836833,0.0002176,53.2185,53.8649,88.2833,271.8408,0.00015169,2.127e-05,0.0,0 STARLINK-4289,1 53024U 22076AQ  24164.88595043  .00002127  00000-0  15169-3 0  9997,2 53024  53.2185  53.8649 0002176  88.2833 271.8408 15.08836833107152,6917.89,95.438,541.26,538.25,0.0
53024.0,STARLINK-4289,PAYLOAD,2024-06-13 02:01:55,15.08838123,0.0001505,53.218,52.9717,95.1866,264.9298,5.063e-05,5.18e-06,0.0,0 STARLINK-4289,1 53024U 22076AQ  24165.08466799  .00000518  00000-0  50630-4 0  9990,2 53024  53.2180  52.9717 0001505  95.1866 264.9298 15.08838123107650,6917.886,95.438,540.792,538.71,0.0
53024.0,STARLINK-4289,PAYLOAD,2024-06-13 09:58:50,15.08848479,0.0001539,53.2185,51.4876,92.4344,267.6825,0.00019469,2.813e-05,0.0,0 STARLINK-4289,1 53024U 22076AQ  24165.41586336  .00002813  00000-0  19469-3 0  9991,2 53024  53.2185  51.4876 0001539  92.4344 267.6825 15.08848479107700,6917.854,95.437,540.784,538.655,0.0
53024.0,STARLINK-4289,PAYLOAD,2024-06-13 22:41:55,15.08846025,0.0001504,53.2189,49.1061,104.8446,255.2713,0.00016522,2.343e-05,0.0,0 STARLINK-4289,1 53024U 22076AQ  24165.94578504  .00002343  00000-0  16522-3 0  9992,2 53024  53.2189  49.1061 0001504 104.8446 255.2713 15.08846025107318,6917.862,95.437,540.767,538.687,0.0
53024.0,STARLINK-4289,PAYLOAD,2024-06-14 22:32:43,15.08839907,0.0001472,53.219,44.6494,96.8321,263.2839,0.00022981,3.371e-05,0.0,0 STARLINK-4289,1 53024U 22076AQ  24166.93938696  .00003371  00000-0  22981-3 0  9992,2 53024  53.2190  44.6494 0001472  96.8321 263.2839 15.08839907107461,6917.881,95.438,540.764,538.727,0.0
53024.0,STARLINK-4289,PAYLOAD,2024-06-15 22:23:30,15.08839341,0.000129,53.218,40.1898,86.9307,273.1833,7.5924e-05,9.21e-06,0.0,0 STARLINK-4289,1 53024U 22076AQ  24167.93298711  .00000921  00000-0  75924-4 0  9994,2 53024  53.2180  40.1898 0001290  86.9307 273.1833 15.08839341107614,6917.882,95.438,540.64,538.855,0.0
53024.0,STARLINK-4289,PAYLOAD,2024-06-16 07:55:48,15.08850108,0.0001323,53.2186,38.4056,87.7689,272.3455,0.00010376,1.364e-05,0.0,0 STARLINK-4289,1 53024U 22076AQ  24168.33041845  .00001364  00000-0  10376-3 0  9994,2 53024  53.2186  38.4056 0001323  87.7689 272.3455 15.08850108107676,6917.849,95.437,540.63,538.799,0.0
53024.0,STARLINK-4289,PAYLOAD,2024-06-16 22:14:17,15.08831432,0.0001416,53.2189,35.7326,101.0234,259.0917,8.2582e-06,-1.57e-06,0.0,0 STARLINK-4289,1 53024U 22076AQ  24168.92659435 -.00000157  00000-0  82582-5 0  9999,2 53024  53.2189  35.7326 0001416 101.0234 259.0917 15.08831432107762,6917.907,95.438,540.751,538.792,0.0
53024.0,STARLINK-4289,PAYLOAD,2024-06-17 20:29:41,15.088386,0.0001309,53.218,31.5679,96.246,263.8681,0.00011303,1.511e-05,0.0,0 STARLINK-4289,1 53024U 22076AQ  24169.85395130  .00001511  00000-0  11303-3 0  9996,2 53024  53.2180  31.5679 0001309  96.2460 263.8681 15.08838600108378,6917.885,95.438,540.655,538.844,0.0
53024.0,STARLINK-4289,PAYLOAD,2024-06-17 22:05:04,15.08840282,0.00013,53.2181,31.2708,98.3305,261.7834,0.00013191,1.812e-05,0.0,0 STARLINK-4289,1 53024U 22076AQ  24169.92019029  .00001812  00000-0  13191-3 0  9995,2 53024  53.2181  31.2708 0001300  98.3305 261.7834 15.08840282107916,6917.88,95.438,540.644,538.845,0.0
53024.0,STARLINK-4289,PAYLOAD,2024-06-18 07:37:22,15.08853098,0.0001363,53.2182,29.4863,93.4553,266.6595,0.00028981,4.329e-05,0.0,0 STARLINK-4289,1 53024U 22076AQ  24170.31762296  .00004329  00000-0  28981-3 0  9990,2 53024  53.2182  29.4863 0001363  93.4553 266.6595 15.08853098108444,6917.84,95.437,540.648,538.762,0.0
53024.0,STARLINK-4289,PAYLOAD,2024-06-18 18:45:05,15.08834357,0.0001559,53.2172,27.405,91.4352,268.6819,0.00015026,2.104e-05,0.0,0 STARLINK-4289,1 53024U 22076AQ  24170.78131472  .00002104  00000-0  15026-3 0  9992,2 53024  53.2172  27.4050 0001559  91.4352 268.6819 15.08834357108517,6917.898,95.438,540.841,538.684,0.0
53024.0,STARLINK-4289,PAYLOAD,2024-06-19 07:28:10,15.08850801,0.0001455,53.2173,25.0248,80.5878,279.5278,0.00030735,4.608e-05,0.0,0 STARLINK-4289,1 53024U 22076AQ  24171.31122764  .00004608  00000-0  30735-3 0  9991,2 53024  53.2173  25.0248 0001455  80.5878 279.5278 15.08850801108598,6917.847,95.437,540.719,538.706,0.0
53024.0,STARLINK-4289,PAYLOAD,2024-06-19 20:11:15,15.08836621,0.0001566,53.218,22.6464,83.2169,276.9001,-6.903e-05,-1.386e-05,0.0,0 STARLINK-4289,1 53024U 22076AQ  24171.84115254 -.00001386  00000-0 -69030-4 0  9998,2 53024  53.2180  22.6464 0001566  83.2169 276.9001 15.08836621108673,6917.891,95.438,540.839,538.672,0.0
53024.0,STARLINK-4289,PAYLOAD,2024-06-19 21:46:38,15.08841944,0.0001307,53.2172,22.3475,81.8268,278.2873,-1.9483e-05,-5.98e-06,0.0,0 STARLINK-4289,1 53024U 22076AQ  24171.90739017 -.00000598  00000-0 -19483-4 0  9995,2 53024  53.2172  22.3475 0001307  81.8268 278.2873 15.08841944108216,6917.874,95.437,540.644,538.835,0.0
53024.0,STARLINK-4289,PAYLOAD,2024-06-20 13:40:30,15.08829698,0.000122,53.2188,19.3726,92.7142,267.399,-5.7677e-05,-1.205e-05,0.0,0 STARLINK-4289,1 53024U 22076AQ  24172.56979469 -.00001205  00000-0 -57677-4 0  9998,2 53024  53.2188  19.3726 0001220  92.7142 267.3990 15.08829698108316,6917.912,95.438,540.621,538.933,0.0
53024.0,STARLINK-4289,PAYLOAD,2024-06-20 20:02:02,15.08838853,0.0001473,53.2177,18.1853,88.702,271.4141,6.1375e-05,6.89e-06,0.0,0 STARLINK-4289,1 53024U 22076AQ  24172.83475268  .00000689  00000-0  61375-4 0  9999,2 53024  53.2177  18.1853 0001473  88.7020 271.4141 15.08838853108353,6917.884,95.438,540.768,538.73,0.0
